#aV2021  5 24  0  0  0.00000000     288 DD+AD WGS84 FIT  NGA
## 2159  86400.00000000   300.00000000 59358 0.0000000000000
+   31     1  2  3  4  5  6  7  8  9 10 12 13 14 15 16 17 18
+         19 20 21 22 23 24 25 26 27 28 29 30 31 32  0  0  0
+          0  0  0  0  0  0  0  0  0  0  0  0  0  0  0  0  0
+          0  0  0  0  0  0  0  0  0  0  0  0  0  0  0  0  0
+          0  0  0  0  0  0  0  0  0  0  0  0  0  0  0  0  0
++         2  2  2  2  2  2  2  2  2  2  2  2  2  2  2  2  2
++         2  2  2  2  2  2  2  2  2  2  2  2  2  2  0  0  0
++         0  0  0  0  0  0  0  0  0  0  0  0  0  0  0  0  0
++         0  0  0  0  0  0  0  0  0  0  0  0  0  0  0  0  0
++         0  0  0  0  0  0  0  0  0  0  0  0  0  0  0  0  0
%c cc cc ccc ccc cccc cccc cccc cccc ccccc ccccc ccccc ccccc
%c cc cc ccc ccc cccc cccc cccc cccc ccccc ccccc ccccc ccccc
%f  0.0000000  0.000000000  0.00000000000  0.000000000000000
%f  0.0000000  0.000000000  0.00000000000  0.000000000000000
%i    0    0    0    0      0      0      0      0         0
%i    0    0    0    0      0      0      0      0         0
/*      NGA, ST. LOUIS,MO.                                  
/*   EPHEMERIS COMPUTED FROM 2 DAYS OF DATA                 
/*   EPOCHA v6 SMOOTHER                                     
/*   G2139 IERS2010 SATIGS SATAPC                           
*  2021  5 24  4 50  0.00000000
P  1 -13230.686924  10620.364202  20075.738051    680.102000                    
V  1  -1300.119506 -26103.036826  13122.928802     -0.112778                    
P  2  13220.807372  14824.577060 -16955.462206   -606.748282                    
V  2    224.090143  22901.346767  19511.942217     -0.031003                    
P  3 -23284.987681  12479.665047   1962.461741   -172.386081                    
V  3    858.660231  -3609.411841  31887.021721     -0.104158                    
P  4 -18999.805788   3531.327840 -18237.879024   -197.452239                    
V  4 -19106.883955 -13170.661471  17288.892922     -0.014126                    
P  5  21891.822555  -1467.719525 -15254.676051    -42.845823                    
V  5 -14851.955173  12060.968952 -22522.945060     -0.011208                    
P  6   6674.461087  23869.363705  -9409.442610     18.908061                    
V  6  -1725.628198  12051.807253  29226.281789      0.039978                    
P  7  -7343.451238  22750.740625 -10671.773754    159.379462                    
V  7  -3316.842266 -14228.652151 -27651.434280      0.103907                    
P  8 -23927.656873  -3948.849802  11169.641368    -22.377126                    
V  8 -11497.841282  -8382.788755 -27267.377529     -0.014701                    
P  9  -9053.421445  12594.426825 -21621.373638   -347.292984                    
V  9 -24054.337287 -12999.145423   2483.918912     -0.021907                    
P 10   1977.104637 -17325.264116  20070.818007   -128.133992                    
V 10  22202.595607 -12151.597912 -13011.380872     -0.076284                    
P 12  24339.153963  -9736.837470   3517.157409    -45.275770                    
V 12  -3120.797284   4426.413336  31715.713765     -0.051826                    
P 13  22843.821044  12794.591691   4746.044642    135.882433                    
V 13   3510.004961   5626.150093 -31061.703119      0.047621                    
P 14  -3180.789422  17522.964846  19686.188728     81.374457                    
V 14 -22585.751784  10880.211637 -13357.036925     -0.058164                    
P 15  24291.682307   1279.153189  10704.142487   -147.281611                    
V 15  11840.288273   8229.558285 -26587.970348      0.026150                    
P 16 -19409.738947  -4231.300633 -18096.714786   -330.066136                    
V 16  19567.766130 -10706.496074 -18293.023208     -0.060063                    
P 17   6426.232202  18550.622390  18313.084636    447.256216                    
V 17 -19469.518129 -11020.269332  18429.221431      0.059991                    
P 18   5492.397515 -24723.659503  -7897.829029    349.524096                    
V 18   2433.680066  10030.178372 -29809.777805     -0.012036                    
P 19  14568.340172  19189.732057  11023.218754      4.065916                    
V 19 -12855.855757  -6679.989112  27779.705777      0.049937                    
P 20  22626.919013  -8600.318332 -10560.219613    521.878523                    
V 20  -8352.490912  11165.215427 -27333.315912     -0.003879                    
P 21 -15500.958153   1940.485127  22183.028437    120.260875                    
V 21  -2730.590343 -26371.899633    898.352245      0.026109                    
P 22 -22944.842894   6298.544359  11789.510000   -606.568800                    
V 22   9982.161265 -11379.027199  26117.512081      0.096461                    
P 23  13170.321512 -19068.101945  12911.167204    103.991752                    
V 23  15050.080913  -6984.442099 -25673.850537     -0.034921                    
P 24  15044.667435  -5265.319150  20958.436203     95.624594                    
V 24   3187.247248  27156.358548   4874.910300      0.213170                    
P 25  18427.816822 -17431.248587  -7651.297958    142.897175                    
V 25   9519.986063  -2497.891998  29904.872379      0.070188                    
P 26 -11702.382139 -10834.844154 -21321.596867     89.302605                    
V 26  22269.084190 -15238.834170  -4221.178778      0.049030                    
P 27 -23642.461900 -12513.943916    678.156705   -135.313779                    
V 27     50.485562  -2297.539331 -31822.311534     -0.064489                    
P 28   2975.437219  15273.878763  22095.188145    566.350365                    
V 28 -24134.983936  11397.591385  -4565.943810     -0.061942                    
P 29  10011.569008 -10993.263966 -22060.915183   -352.268100                    
V 29  23224.125809  15315.924731   2866.354006     -0.064065                    
P 30   1011.445862  26367.680803   1592.017891   -430.044257                    
V 30  -3769.080078   1948.061010 -31289.370001     -0.048868                    
P 31  -8418.388104 -21879.985278 -12112.393108   -119.035508                    
V 31   2859.790798 -15415.361093  26493.425329     -0.021281                    
P 32  -9865.637118 -18551.117691  16461.337452     20.570474                    
V 32  18991.994848   8264.486898  20670.645249     -0.008987                    
EOF
